[{"OBJECT_NAME":"JILIN-1 GAOFEN 03D53","OBJECT_ID":"2022-155C","EPOCH":"2026-03-09T21:59:34.489824","MEAN_MOTION":15.46744133,"ECCENTRICITY":0.00055317,"INCLINATION":97.6077,"RA_OF_ASC_NODE":203.8168,"ARG_OF_PERICENTER":17.7738,"MEAN_ANOMALY":342.3704,"EPHEMERIS_TYPE":0,"CLASSIFICATION_TYPE":"U","NORAD_CAT_ID":54253,"ELEMENT_SET_NO":999,"REV_AT_EPOCH":18411,"BSTAR":0.00074680835,"MEAN_MOTION_DOT":0.00037423,"MEAN_MOTION_DDOT":0},{"OBJECT_NAME":"SL-3 R\/B","OBJECT_ID":"1977-057B","EPOCH":"2026-03-09T21:55:03.006336","MEAN_MOTION":15.45501116,"ECCENTRICITY":0.00061593,"INCLINATION":97.5777,"RA_OF_ASC_NODE":240.8437,"ARG_OF_PERICENTER":284.2853,"MEAN_ANOMALY":75.7711,"EPHEMERIS_TYPE":0,"CLASSIFICATION_TYPE":"U","NORAD_CAT_ID":10114,"ELEMENT_SET_NO":999,"REV_AT_EPOCH":66836,"BSTAR":0.00032201204,"MEAN_MOTION_DOT":0.00015369,"MEAN_MOTION_DDOT":0}]
